GOES 1 (SMS-C) [-]      
1 08366U 75100A   21053.59601076  .00000052  00000-0  00000-0 0  9998
2 08366   9.4017 301.8284 0002835 358.8650 300.6132  1.00249774165602
GOES 2 [-]              
1 10061U 77048A   21053.57478382 -.00000303  00000-0  00000-0 0  9996
2 10061  10.8965 312.3170 0015637  10.5947 170.7487  0.99400046 26985
GOES 3 [-]              
1 10953U 78062A   21052.80743635  .00000112  00000-0  00000+0 0  9990
2 10953  11.1776 316.4822 0003514  43.5666 142.6717  0.99357548109303
GOES 4 [-]              
1 11964U 80074A   21052.99077262 -.00000185  00000-0  00000-0 0  9997
2 11964  12.0895 320.2627 0035415  54.6721 128.0232  0.99233350108172
GOES 5 [-]              
1 12472U 81049A   21053.50148517  .00000043  00000-0  00000-0 0  9997
2 12472  12.7392 331.1823 0002974  11.3969 223.7924  1.00218087103385
GOES 6 [-]              
1 14050U 83041A   21053.51473748  .00000037  00000-0  00000-0 0  9996
2 14050  13.2029 336.3346 0003135  63.7253 171.4701  1.00234893196552
GOES 7 [-]              
1 17561U 87022A   21053.63824272 -.00000104  00000-0  00000-0 0  9990
2 17561  14.6176 352.6618 0007949  20.6302 180.1032  0.99909847107570
GOES 8 [-]              
1 23051U 94022A   21053.61247122 -.00000047  00000-0  00000-0 0  9996
2 23051  12.7634  27.6685 0008584 340.7242 209.0354  0.98905710104936
GOES 9 [-]              
1 23581U 95025A   21053.41594716 -.00000124  00000-0  00000-0 0  9996
2 23581  12.2517  27.7646 0004759  35.2968 171.6462  0.98799440 93581
GOES 10 [-]             
1 24786U 97019A   21052.30447671 -.00000277  00000-0  00000-0 0  9992
2 24786  10.8799  33.6149 0024900 197.6159 159.6650  0.99125773 86810
GOES 11 [-]             
1 26352U 00022A   21053.45312076 -.00000264  00000-0  00000-0 0  9994
2 26352   7.6793  63.0396 0003459 264.8085 118.9880  0.99044094 33250
GOES 12 [-]             
1 26871U 01031A   21053.63784848  .00000067  00000-0  00000-0 0  9991
2 26871   8.6696  51.2237 0009083 296.7162 273.9992  0.99135431 71525
EWS-G1 (GOES 13) [+]    
1 29155U 06018A   21053.58284063  .00000038  00000-0  00000-0 0  9995
2 29155   0.4083 275.9479 0004525 335.6818 172.5679  1.00271161 23913
GOES 14 [B]             
1 35491U 09033A   21053.61144042 -.00000091  00000-0  00000-0 0  9991
2 35491   0.0642 172.2468 0011162  56.1537  40.1332  1.00271358 42662
GOES 15 [B]             
1 36411U 10008A   21053.59454779  .00000057  00000-0  00000-0 0  9997
2 36411   0.1983 256.3392 0003495 124.6124 217.6849  1.00264952 40223
GOES 16 [+]             
1 41866U 16071A   21053.34910523 -.00000246  00000-0  00000-0 0  9991
2 41866   0.0516 294.2631 0001724  55.2164 213.4579  1.00271698 15655
GOES 17 [+]             
1 43226U 18022A   21052.60993000  .00000101  00000-0  00000-0 0  9999
2 43226   0.0649 279.6931 0000605  53.3276 261.0583  1.00272090 10942
